STARLINK-6037           
1 56461C 23064P   26196.85048611  .00062353  00000+0  52255-2 0  1962
2 56461  70.0004 181.1557 0003700 270.9820 217.3694 14.98297225    13
STARLINK-6045           
1 56462C 23064Q   26196.85534722  .00009856  00000+0  82564-3 0  1962
2 56462  70.0023 141.1000 0003350 259.9233 143.8155 14.98340668    15
STARLINK-6051           
1 56463C 23064R   26196.89493056  .00043071  00000+0  36096-2 0  1966
2 56463  70.0008 181.2879 0003607 269.9292 233.0749 14.98306780    17
STARLINK-6043           
1 56464C 23064S   26196.91159722  .00039764  00000+0  33316-2 0  1965
2 56464  70.0006 181.0772 0003696 267.0029 123.4633 14.98317487    11
STARLINK-6054           
1 56465C 23064T   26196.86784722  .00011440  00000+0  95722-3 0  1965
2 56465  70.0025 141.1139 0003425 261.9168 165.0580 14.98385498    14
STARLINK-6053           
1 56466C 23064U   26196.91993056  .00032417  00000+0  27159-2 0  1969
2 56466  70.0004 181.0060 0003446 267.0248 213.2947 14.98323579    12
STARLINK-6055           
1 56467C 23064V   26196.85743056  .00040091  00000+0  33595-2 0  1964
2 56467  70.0014 161.4202 0002901 268.0680 123.9707 14.98314376    16
STARLINK-5998           
1 56468C 23064W   26196.84354167  .00064265  00000+0  53855-2 0  1965
2 56468  70.0006 181.1467 0003716 261.7146 211.8088 14.98297874    14
STARLINK-5518           
1 56469C 23064X   26196.93034722 -.00006812  00000+0 -57074-3 0  1962
2 56469  70.0019 161.3123 0003388 263.1987  94.5195 14.98343421    17
STARLINK-5523           
1 56470C 23064Y   26196.90604167  .00005452  00000+0  45682-3 0  1966
2 56470  70.0018 161.3230 0003219 266.3547   5.3187 14.98335459    10
STARLINK-5521           
1 56471C 23064Z   26196.87270833  .00027542  00000+0  23105-2 0  1961
2 56471  70.0016 161.3558 0002952 271.3102 225.6853 14.98277870    17
STARLINK-5038           
1 56472C 23064AA  26196.85118056  .00043290  00000+0  36274-2 0  1967
2 56472  70.0015 161.3619 0003343 262.0074 163.8630 14.98313781    13
STARLINK-5524           
1 56474C 23064AC  26196.88104167  .00022053  00000+0  18476-2 0  1968
2 56474  70.0017 161.4112 0003400 261.0011 213.3526 14.98329395    13
STARLINK-5541           
1 56475C 23064AD  26196.93243056 -.00007485  00000+0 -62715-3 0  1966
2 56475  70.0019 161.1285 0003335 262.8024 263.5905 14.98340790    14
STARLINK-5545           
1 56476C 23064AE  26196.88451389  .00019461  00000+0  16305-2 0  1969
2 56476  70.0016 161.3008 0003124 263.3202 319.7892 14.98330132    15
STARLINK-5534           
1 56477C 23064AF  26196.92062500 -.00002278  00000+0 -19092-3 0  1965
2 56477  70.0019 161.0607 0003096 261.2814 290.6053 14.98334787    11
STARLINK-6041           
1 56478C 23064AG  26196.86715278  .00028520  00000+0  23898-2 0  1960
2 56478  70.0017 161.2700 0003388 264.4036 292.6183 14.98319964    17
STARLINK-6044           
1 56479C 23064AH  26196.93034722 -.00007101  00000+0 -59494-3 0  1963
2 56479  70.0019 160.9587 0003017 268.1558  44.5776 14.98342671    11
STARLINK-6214           
1 56480C 23064AJ  26196.87548611 -.00026344  00000+0 -71721-3 0  1962
2 56480  69.9915 112.6749 0004322 257.5489 135.3850 15.37369841    18
STARLINK-6222           
1 56481C 23064AK  26196.85881944  .00032561  00000+0  27286-2 0  1962
2 56481  70.0017 161.1897 0003330 266.0818 336.0107 14.98316232    14
STARLINK-6220           
1 56482C 23064AL  26196.88937500  .00020950  00000+0  17554-2 0  1962
2 56482  70.0018 161.1886 0002976 266.4530  72.9092 14.98325951    11
STARLINK-5868           
1 56483C 23064AM  26196.87270833  .00027129  00000+0  22732-2 0  1960
2 56483  70.0017 161.2015 0003250 262.2890   9.7146 14.98323215    14
STARLINK-6221           
1 56484C 23064AN  26196.89909722  .00013877  00000+0  11628-2 0  1966
2 56484  70.0018 161.1132 0003483 264.9451 171.7434 14.98327638    18
STARLINK-6210           
1 56485C 23064AP  26196.86090278  .00034552  00000+0  28919-2 0  1965
2 56485  70.0017 161.1078 0003264 257.9632  62.8483 14.98362189    11
STARLINK-6196           
1 56487C 23064AR  26196.91854167 -.00025293  00000+0 -21200-2 0  1968
2 56487  70.0024 140.9969 0003101 262.0246 100.9642 14.98335906    11
STARLINK-6204           
1 56488C 23064AS  26196.91715278 -.00027132  00000+0 -22734-2 0  1965
2 56488  70.0023 141.2480 0002878 265.7419 224.6136 14.98351071    18
STARLINK-5923           
1 56489C 23064AT  26196.90187500 -.00022465  00000+0 -18823-2 0  1964
2 56489  70.0025 141.2105 0002801 268.1577 207.3458 14.98348528    11
STARLINK-5873           
1 56490C 23064AU  26196.92340278 -.00027681  00000+0 -23194-2 0  1963
2 56490  70.0023 141.2809 0003166 263.6859 215.3439 14.98351718    13
STARLINK-5842           
1 56491C 23064AV  26196.92756944 -.00035699  00000+0 -29910-2 0  1965
2 56491  70.0025 141.1202 0003027 266.4675  10.1006 14.98357787    18
STARLINK-5846           
1 56492C 23064AW  26196.90048611 -.00023790  00000+0 -19940-2 0  1960
2 56492  70.0025 141.1633 0003044 268.3496 244.6827 14.98336778    10
STARLINK-5841           
1 56493C 23064AX  26196.90395833 -.00039749  00000+0 -33306-2 0  1965
2 56493  70.0026 121.1970 0002866 266.1761 334.3006 14.98357381    15
STARLINK-5530           
1 56494C 23064AY  26196.85604167  .00002612  00000+0  21895-3 0  1961
2 56494  70.0025 141.2764 0002979 267.4760   5.0299 14.98325267    11
STARLINK-5529           
1 56495C 23064AZ  26196.86368056  .00002266  00000+0  18982-3 0  1965
2 56495  70.0026 141.2062 0003043 267.9157  91.6586 14.98341431    13
STARLINK-5526           
1 56496C 23064BA  26196.88798611 -.00015166  00000+0 -12704-2 0  1962
2 56496  70.0026 141.1199 0004329 261.7779 251.3553 14.98351896    19
STARLINK-5527           
1 56497C 23064BB  26196.90673611 -.00006547  00000+0 -54800-3 0  1965
2 56497  70.0025 141.0488 0003499 258.5699  17.2907 14.98381859    15
STARLINK-5522           
1 56498C 23064BC  26196.84909722  .00006810  00000+0  57070-3 0  1967
2 56498  70.0025 141.2680 0002947 265.7098 352.6786 14.98327769    13
STARLINK-5775           
1 56503C 23065A   26196.89631944  .00016948  00000+0  61393-3 0  1964
2 56503  42.9991 208.2443 0001374 261.0848 314.6389 15.27566772    15
STARLINK-5716           
1 56504C 23065B   26196.87756944  .00019206  00000+0  69621-3 0  1963
2 56504  42.9995 208.5333 0001784 262.4733 132.2747 15.27542093    16
STARLINK-5763           
1 56505C 23065C   26196.90881944  .00025634  00000+0  92847-3 0  1965
2 56505  43.0020 208.6932 0001802 273.7921 151.4340 15.27565095    18
STARLINK-5340           
1 56506C 23065D   26196.85326389  .00007345  00000+0  26608-3 0  1968
2 56506  42.9993 197.4584 0001621 260.9694 317.3849 15.27568178    10
STARLINK-5333           
1 56507C 23065E   26196.87756944  .00027967  00000+0  10131-2 0  1960
2 56507  42.9996 175.7876 0001386 263.2801 348.9603 15.27558431    10
STARLINK-5335           
1 56508C 23065F   26196.90743056  .00027279  00000+0  98792-3 0  1961
2 56508  42.9989 207.9914 0001797 265.3612  89.2459 15.27568715    13
STARLINK-5334           
1 56509C 23065G   26196.92548611  .00030863  00000+0  11183-2 0  1965
2 56509  42.9989 208.0378 0001356 265.0511 125.3524 15.27551266    14
STARLINK-5339           
1 56510C 23065H   26196.86020833 -.00002389  00000+0 -86526-4 0  1960
2 56510  42.9992 208.3121 0001912 264.9981 168.5080 15.27577451    16
STARLINK-5351           
1 56511C 23065J   26196.85187500  .00004814  00000+0  17438-3 0  1963
2 56511  42.9994 208.5335 0001404 263.7524  46.0654 15.27570590    18
STARLINK-5349           
1 56512C 23065K   26196.89631944  .00018591  00000+0  67345-3 0  1963
2 56512  42.9995 208.1463 0001496 264.4357 346.6704 15.27565878    19
STARLINK-5329           
1 56513C 23065L   26196.92965278  .00031633  00000+0  11459-2 0  1964
2 56513  42.9989 208.1492 0001265 261.2114  95.5993 15.27559916    11
STARLINK-5348           
1 56515C 23065N   26196.92965278  .00032541  00000+0  11796-2 0  1969
2 56515  42.9987 208.1973 0000992 260.3826  75.2792 15.27536286    18
STARLINK-5342           
1 56516C 23065P   26196.85951389  .00009887  00000+0  35813-3 0  1964
2 56516  42.9993 208.4625 0001458 265.7283 100.2899 15.27570069    11
STARLINK-5345           
1 56517C 23065Q   26196.91576389  .00021055  00000+0  76273-3 0  1961
2 56517  43.0019 208.4213 0001402 273.2999 282.1589 15.27562653    19
STARLINK-5346           
1 56518C 23065R   26196.88729167  .00020253  00000+0  73351-3 0  1965
2 56518  42.9994 208.4870 0001466 271.5111 169.6184 15.27570127    11
STARLINK-6313           
1 56519C 23065S   26196.92965278  .00025885  00000+0  93751-3 0  1968
2 56519  43.0013 208.4239 0001374 278.0554 318.3849 15.27567722    14
STARLINK-6344           
1 56520C 23065T   26196.86854167  .00011612  00000+0  42065-3 0  1962
2 56520  43.0010 208.6407 0001393 259.6921  56.9910 15.27566618    13
STARLINK-6333           
1 56521C 23065U   26196.91090278  .00020748  00000+0  75155-3 0  1960
2 56521  43.0016 211.9630 0001130 273.1155 208.7739 15.27565989    10
STARLINK-6327           
1 56522C 23065V   26196.86645833  .00005069  00000+0  18362-3 0  1964
2 56522  42.9998 208.7265 0001538 266.4773   3.3688 15.27569867    10
STARLINK-6328           
1 56523C 23065W   26196.87687500  .00007700  00000+0  27891-3 0  1964
2 56523  43.0001 208.9608 0001771 264.3347 302.5673 15.27572766    14
STARLINK-6323           
1 56524C 23065X   26196.89562500  .00024306  00000+0  88043-3 0  1966
2 56524  43.0005 208.7724 0002239 269.6351  75.8549 15.27562986    14
STARLINK-6329           
1 56525C 23065Y   26196.89284722  .00006652  00000+0  24099-3 0  1969
2 56525  42.9990 219.4500 0002031 267.2537 233.0370 15.27568898    15
STARLINK-6317           
1 56526C 23065Z   26196.90743056  .00027006  00000+0  97794-3 0  1960
2 56526  43.0007 208.7555 0001873 264.8659 124.3731 15.27571606    13
